{"type": "FeatureCollection", "features": [ {"type": "Feature", "properties": {"norad_id": 42987, "name": "SKYSAT-C11", "group": "resource", "lat": 36.89698338911928, "lon": 131.82066526928512, "alt_km": 419.62931954765554, "timestamp": "2025-12-25T14:48:24.459299+00:00", "meta": {"OBJECT_NAME": "SKYSAT-C11", "OBJECT_ID": "2017-068A", "EPOCH": "2025-12-24T21:34:50.650176", "MEAN_MOTION": 15.4796518, "ECCENTRICITY": 0.0001116, "INCLINATION": 97.4153, "RA_OF_ASC_NODE": 136.6958, "ARG_OF_PERICENTER": 96.4287, "MEAN_ANOMALY": 263.709, "EPHEMERIS_TYPE": 0, "CLASSIFICATION_TYPE": "U", "NORAD_CAT_ID": 42987, "ELEMENT_SET_NO": 999, "REV_AT_EPOCH": 45619, "BSTAR": 0.00045752, "MEAN_MOTION_DOT": 0.00023827, "MEAN_MOTION_DDOT": 0}, "tle": {"line1": "1 42987U 17068A   25358.89919734  .00023827  00000+0  45752-3 0  9992", "line2": "2 42987  97.4153 136.6958 0001116  96.4287 263.7090 15.47965180456192"}}, "geometry": {"type": "Point", "coordinates": [131.82066526928512, 36.89698338911928]}}, {"type": "Feature", "properties": {"norad_id": 42988, "name": "SKYSAT-C10", "group": "resource", "lat": 61.00083876276998, "lon": -35.88271808049742, "alt_km": 461.6213950610436, "timestamp": "2025-12-25T14:48:24.459308+00:00", "meta": {"OBJECT_NAME": "SKYSAT-C10", "OBJECT_ID": "2017-068B", "EPOCH": "2025-12-24T19:29:00.783168", "MEAN_MOTION": 15.32071049, "ECCENTRICITY": 0.00043105, "INCLINATION": 97.4272, "RA_OF_ASC_NODE": 129.6977, "ARG_OF_PERICENTER": 75.127, "MEAN_ANOMALY": 285.0448, "EPHEMERIS_TYPE": 0, "CLASSIFICATION_TYPE": "U", "NORAD_CAT_ID": 42988, "ELEMENT_SET_NO": 999, "REV_AT_EPOCH": 45564, "BSTAR": 0.00040464637, "MEAN_MOTION_DOT": 0.00012461, "MEAN_MOTION_DDOT": 0}, "tle": {"line1": "1 42988U 17068B   25358.81181462  .00012461  00000+0  40465-3 0  9992", "line2": "2 42988  97.4272 129.6977 0004310  75.1270 285.0448 15.32071049455642"}}, "geometry": {"type": "Point", "coordinates": [-35.88271808049742, 61.00083876276998]}}, {"type": "Feature", "properties": {"norad_id": 42989, "name": "SKYSAT-C9", "group": "resource", "lat": 26.69352564027709, "lon": -46.26818639285244, "alt_km": 457.9580993822801, "timestamp": "2025-12-25T14:48:24.459317+00:00", "meta": {"OBJECT_NAME": "SKYSAT-C9", "OBJECT_ID": "2017-068C", "EPOCH": "2025-12-25T07:53:29.378400", "MEAN_MOTION": 15.36363881, "ECCENTRICITY": 0.00102424, "INCLINATION": 97.4193, "RA_OF_ASC_NODE": 129.6845, "ARG_OF_PERICENTER": 47.2855, "MEAN_ANOMALY": 312.925, "EPHEMERIS_TYPE": 0, "CLASSIFICATION_TYPE": "U", "NORAD_CAT_ID": 42989, "ELEMENT_SET_NO": 999, "REV_AT_EPOCH": 45601, "BSTAR": 0.00039020663, "MEAN_MOTION_DOT": 0.00013787, "MEAN_MOTION_DDOT": 0}, "tle": {"line1": "1 42989U 17068C   25359.32881225  .00013787  00000+0  39021-3 0  9992", "line2": "2 42989  97.4193 129.6845 0010242  47.2855 312.9250 15.36363881456014"}}, "geometry": {"type": "Point", "coordinates": [-46.26818639285244, 26.69352564027709]}}, {"type": "Feature", "properties": {"norad_id": 42990, "name": "SKYSAT-C8", "group": "resource", "lat": -22.055470713376646, "lon": 132.70600306011133, "alt_km": 471.5008192154228, "timestamp": "2025-12-25T14:48:24.459326+00:00", "meta": {"OBJECT_NAME": "SKYSAT-C8", "OBJECT_ID": "2017-068D", "EPOCH": "2025-12-24T20:06:25.740288", "MEAN_MOTION": 15.33182235, "ECCENTRICITY": 9.448e-05, "INCLINATION": 97.4288, "RA_OF_ASC_NODE": 128.8929, "ARG_OF_PERICENTER": 271.5017, "MEAN_ANOMALY": 88.6117, "EPHEMERIS_TYPE": 0, "CLASSIFICATION_TYPE": "U", "NORAD_CAT_ID": 42990, "ELEMENT_SET_NO": 999, "REV_AT_EPOCH": 45556, "BSTAR": 0.00038956306, "MEAN_MOTION_DOT": 0.00012417, "MEAN_MOTION_DDOT": 0}, "tle": {"line1": "1 42990U 17068D   25358.83779792  .00012417  00000+0  38956-3 0  9999", "line2": "2 42990  97.4288 128.8929 0000944 271.5017  88.6117 15.33182235455562"}}, "geometry": {"type": "Point", "coordinates": [132.70600306011133, -22.055470713376646]}}, {"type": "Feature", "properties": {"norad_id": 42991, "name": "SKYSAT-C7", "group": "resource", "lat": 14.19739615516586, "lon": -47.40195140083053, "alt_km": 473.1703187414887, "timestamp": "2025-12-25T14:48:24.459335+00:00", "meta": {"OBJECT_NAME": "SKYSAT-C7", "OBJECT_ID": "2017-068E", "EPOCH": "2025-12-25T07:49:08.478912", "MEAN_MOTION": 15.32590017, "ECCENTRICITY": 0.00068385, "INCLINATION": 97.4295, "RA_OF_ASC_NODE": 130.4139, "ARG_OF_PERICENTER": 17.3403, "MEAN_ANOMALY": 342.8071, "EPHEMERIS_TYPE": 0, "CLASSIFICATION_TYPE": "U", "NORAD_CAT_ID": 42991, "ELEMENT_SET_NO": 999, "REV_AT_EPOCH": 45570, "BSTAR": 0.00038873707, "MEAN_MOTION_DOT": 0.00012169, "MEAN_MOTION_DDOT": 0}, "tle": {"line1": "1 42991U 17068E   25359.32579258  .00012169  00000+0  38874-3 0  9993", "line2": "2 42991  97.4295 130.4139 0006838  17.3403 342.8071 15.32590017455706"}}, "geometry": {"type": "Point", "coordinates": [-47.40195140083053, 14.19739615516586]}}, {"type": "Feature", "properties": {"norad_id": 42992, "name": "SKYSAT-C6", "group": "resource", "lat": -62.596774666774465, "lon": -63.451372831172996, "alt_km": 480.93942251099907, "timestamp": "2025-12-25T14:48:24.459344+00:00", "meta": {"OBJECT_NAME": "SKYSAT-C6", "OBJECT_ID": "2017-068F", "EPOCH": "2025-12-24T20:30:02.163744", "MEAN_MOTION": 15.31732317, "ECCENTRICITY": 0.0004766, "INCLINATION": 97.4329, "RA_OF_ASC_NODE": 130.3693, "ARG_OF_PERICENTER": 49.5424, "MEAN_ANOMALY": 310.6233, "EPHEMERIS_TYPE": 0, "CLASSIFICATION_TYPE": "U", "NORAD_CAT_ID": 42992, "ELEMENT_SET_NO": 999, "REV_AT_EPOCH": 45561, "BSTAR": 0.00038047, "MEAN_MOTION_DOT": 0.00011588, "MEAN_MOTION_DDOT": 0}, "tle": {"line1": "1 42992U 17068F   25358.85419171  .00011588  00000+0  38047-3 0  9994", "line2": "2 42992  97.4329 130.3693 0004766  49.5424 310.6233 15.31732317455610"}}, "geometry": {"type": "Point", "coordinates": [-63.451372831172996, -62.596774666774465]}}, {"type": "Feature", "properties": {"norad_id": 43111, "name": "CARTOSAT-2F", "group": "resource", "lat": 41.91362643512513, "lon": -116.2277931272781, "alt_km": 503.7834071388015, "timestamp": "2025-12-25T14:48:24.459353+00:00", "meta": {"OBJECT_NAME": "CARTOSAT-2F", "OBJECT_ID": "2018-004A", "EPOCH": "2025-12-25T07:52:49.641312", "MEAN_MOTION": 15.19244091, "ECCENTRICITY": 0.00016368, "INCLINATION": 97.4295, "RA_OF_ASC_NODE": 56.7613, "ARG_OF_PERICENTER": 110.7706, "MEAN_ANOMALY": 249.3705, "EPHEMERIS_TYPE": 0, "CLASSIFICATION_TYPE": "U", "NORAD_CAT_ID": 43111, "ELEMENT_SET_NO": 999, "REV_AT_EPOCH": 44093, "BSTAR": 0.0002723984, "MEAN_MOTION_DOT": 5.673e-05, "MEAN_MOTION_DDOT": 0}, "tle": {"line1": "1 43111U 18004A   25359.32835233  .00005673  00000+0  27240-3 0  9994", "line2": "2 43111  97.4295  56.7613 0001636 110.7706 249.3705 15.19244091440930"}}, "geometry": {"type": "Point", "coordinates": [-116.2277931272781, 41.91362643512513]}}, {"type": "Feature", "properties": {"norad_id": 43259, "name": "GAOFEN-1 02", "group": "resource", "lat": 78.84760879293034, "lon": 11.317031771838197, "alt_km": 633.1605838191408, "timestamp": "2025-12-25T14:48:24.459362+00:00", "meta": {"OBJECT_NAME": "GAOFEN-1 02", "OBJECT_ID": "2018-031A", "EPOCH": "2025-12-25T06:18:10.063872", "MEAN_MOTION": 14.76440967, "ECCENTRICITY": 0.00026432, "INCLINATION": 98.0785, "RA_OF_ASC_NODE": 57.0554, "ARG_OF_PERICENTER": 171.2081, "MEAN_ANOMALY": 188.9175, "EPHEMERIS_TYPE": 0, "CLASSIFICATION_TYPE": "U", "NORAD_CAT_ID": 43259, "ELEMENT_SET_NO": 999, "REV_AT_EPOCH": 41703, "BSTAR": 0.00019435462, "MEAN_MOTION_DOT": 1.3e-05, "MEAN_MOTION_DDOT": 0}, "tle": {"line1": "1 43259U 18031A   25359.26261648  .00001300  00000+0  19435-3 0  9993", "line2": "2 43259  98.0785  57.0554 0002643 171.2081 188.9175 14.76440967417035"}}, "geometry": {"type": "Point", "coordinates": [11.317031771838197, 78.84760879293034]}}, {"type": "Feature", "properties": {"norad_id": 43260, "name": "GAOFEN-1 03", "group": "resource", "lat": -18.41872574210429, "lon": -125.42520865163435, "alt_km": 644.8723793923482, "timestamp": "2025-12-25T14:48:24.459371+00:00", "meta": {"OBJECT_NAME": "GAOFEN-1 03", "OBJECT_ID": "2018-031B", "EPOCH": "2025-12-25T07:24:15.943104", "MEAN_MOTION": 14.76461761, "ECCENTRICITY": 0.00017381, "INCLINATION": 98.0781, "RA_OF_ASC_NODE": 56.9773, "ARG_OF_PERICENTER": 254.284, "MEAN_ANOMALY": 105.8178, "EPHEMERIS_TYPE": 0, "CLASSIFICATION_TYPE": "U", "NORAD_CAT_ID": 43260, "ELEMENT_SET_NO": 999, "REV_AT_EPOCH": 41703, "BSTAR": 0.00014181653, "MEAN_MOTION_DOT": 9.35e-06, "MEAN_MOTION_DDOT": 0}, "tle": {"line1": "1 43260U 18031B   25359.30851786  .00000935  00000+0  14182-3 0  9995", "line2": "2 43260  98.0781  56.9773 0001738 254.2840 105.8178 14.76461761417039"}}, "geometry": {"type": "Point", "coordinates": [-125.42520865163435, -18.41872574210429]}}, {"type": "Feature", "properties": {"norad_id": 43262, "name": "GAOFEN-1 04", "group": "resource", "lat": -32.29372520457828, "lon": 62.606626757013224, "alt_km": 646.7657205456399, "timestamp": "2025-12-25T14:48:24.459400+00:00", "meta": {"OBJECT_NAME": "GAOFEN-1 04", "OBJECT_ID": "2018-031D", "EPOCH": "2025-12-25T06:49:18.461280", "MEAN_MOTION": 14.76432559, "ECCENTRICITY": 5.298e-05, "INCLINATION": 98.0787, "RA_OF_ASC_NODE": 57.1235, "ARG_OF_PERICENTER": 65.6143, "MEAN_ANOMALY": 294.5122, "EPHEMERIS_TYPE": 0, "CLASSIFICATION_TYPE": "U", "NORAD_CAT_ID": 43262, "ELEMENT_SET_NO": 999, "REV_AT_EPOCH": 41702, "BSTAR": 0.00020124958, "MEAN_MOTION_DOT": 1.348e-05, "MEAN_MOTION_DDOT": 0}, "tle": {"line1": "1 43262U 18031D   25359.28424145  .00001348  00000+0  20125-3 0  9992", "line2": "2 43262  98.0787  57.1235 0000529  65.6143 294.5122 14.76432559417027"}}, "geometry": {"type": "Point", "coordinates": [62.606626757013224, -32.29372520457828]}}]}